O3B FM20                
1 44112U 19020A   26073.86362964 -.00000020  00000+0  00000+0 0  9997
2 44112   0.0522   0.0965 0002759 341.6917  18.1985  5.00115512126851
O3B FM19                
1 44113U 19020B   26074.09063635 -.00000020  00000+0  00000+0 0  9997
2 44113   0.0584 353.1915 0004213 354.1700  12.6246  5.00115992126731
O3B FM17                
1 44114U 19020C   26072.77146366 -.00000022  00000+0  00000+0 0  9996
2 44114   0.0382 342.2165 0002664   5.4523  12.3211  5.00115442126752
O3B FM18                
1 44115U 19020D   26074.11699512 -.00000019  00000+0  00000+0 0  9999
2 44115   0.0525   0.3281 0002729 354.2505   5.4151  5.00115245126948
SALSAT                  
1 46495U 20068K   26074.23852363  .00010372  00000+0  37867-3 0  9991
2 46495  97.8857  71.6917 0008033 272.6742  87.3577 15.28307413301004
O3B MPOWER F1           
1 54755U 22174A   26074.25386464 -.00000019  00000+0  00000+0 0  9998
2 54755   0.0635 350.3812 0005455  19.5992  96.3391  5.00114895 60660
O3B MPOWER F2           
1 54756U 22174B   26062.53384886 -.00000028  00000+0  00000+0 0  9993
2 54756   0.1272 326.2177 0046125  76.0907 318.0389  5.00690325 60150
O3B MPOWER F4           
1 56367U 23059A   26048.24074746 -.00000015  00000+0  00000+0 0  9995
2 56367   0.0593   7.9241 0006460 334.3658  17.6828  5.00119607 52601
